{
  "norad_id": 58490,
  "name": "STARLINK-30978",
  "history": [
    {
      "epoch": "2026-03-28T15:05:58.907328Z",
      "apogee_km": 484.3663541329097,
      "perigee_km": 481.6424809901382,
      "latitude_deg": -2.761782802601691e-05,
      "longitude_deg": -95.93193496923425,
      "height_km": 483.1429946060184,
      "semi_major_axis_km": 6861.141417561524,
      "eccentricity": 0.0001985,
      "inclination_deg": 43.0035,
      "raan_deg": 316.6104,
      "arg_perigee_deg": 254.6237,
      "mean_anomaly_deg": 105.4395,
      "mean_motion_rev_day": 15.27594921
    },
    {
      "epoch": "2026-03-29T00:30:55.126368Z",
      "apogee_km": 484.7704903399308,
      "perigee_km": 481.30696883163546,
      "latitude_deg": 3.196714792848667e-05,
      "longitude_deg": 120.23169680427688,
      "height_km": 483.30992186508865,
      "semi_major_axis_km": 6861.175729585783,
      "eccentricity": 0.0002524,
      "inclination_deg": 43.0067,
      "raan_deg": 314.3949,
      "arg_perigee_deg": 253.4587,
      "mean_anomaly_deg": 106.5988,
      "mean_motion_rev_day": 15.27583462
    },
    {
      "epoch": "2026-03-30T00:03:15.967296Z",
      "apogee_km": 484.26374360656973,
      "perigee_km": 481.8055230337841,
      "latitude_deg": 6.763446492517889e-05,
      "longitude_deg": 120.64018072997672,
      "height_km": 483.1827416827638,
      "semi_major_axis_km": 6861.171633320177,
      "eccentricity": 0.00017914,
      "inclination_deg": 43.0039,
      "raan_deg": 308.8569,
      "arg_perigee_deg": 252.4422,
      "mean_anomaly_deg": 107.6235,
      "mean_motion_rev_day": 15.2758483
    },
    {
      "epoch": "2026-03-30T07:54:02.871360Z",
      "apogee_km": 484.3758932115443,
      "perigee_km": 481.70662042251297,
      "latitude_deg": 9.316767988409614e-06,
      "longitude_deg": 0.7764466767646288,
      "height_km": 483.12754226749877,
      "semi_major_axis_km": 6861.178256817028,
      "eccentricity": 0.00019452,
      "inclination_deg": 43.0041,
      "raan_deg": 307.0109,
      "arg_perigee_deg": 256.6229,
      "mean_anomaly_deg": 103.4406,
      "mean_motion_rev_day": 15.27582618
    },
    {
      "epoch": "2026-03-30T15:44:49.732224Z",
      "apogee_km": 484.0678615512479,
      "perigee_km": 481.9898888542839,
      "latitude_deg": 2.262823883765511e-05,
      "longitude_deg": -119.08673050495374,
      "height_km": 482.9431861380974,
      "semi_major_axis_km": 6861.165875202765,
      "eccentricity": 0.00015143,
      "inclination_deg": 43.0033,
      "raan_deg": 305.1652,
      "arg_perigee_deg": 262.4129,
      "mean_anomaly_deg": 97.6551,
      "mean_motion_rev_day": 15.27586753
    },
    {
      "epoch": "2026-03-30T23:35:37.377600Z",
      "apogee_km": 484.3484299013926,
      "perigee_km": 481.79729485036387,
      "latitude_deg": 3.097636302308837e-06,
      "longitude_deg": 121.04777954315085,
      "height_km": 482.6242438678852,
      "semi_major_axis_km": 6861.209862375878,
      "eccentricity": 0.00018591,
      "inclination_deg": 43.0042,
      "raan_deg": 303.3205,
      "arg_perigee_deg": 280.2128,
      "mean_anomaly_deg": 79.8514,
      "mean_motion_rev_day": 15.27572063
    },
    {
      "epoch": "2026-04-01T13:15:21.497760Z",
      "apogee_km": 485.0661566049512,
      "perigee_km": 480.968675187778,
      "latitude_deg": -5.766180233846429e-05,
      "longitude_deg": -94.29915100594623,
      "height_km": 482.97041840714286,
      "semi_major_axis_km": 6861.154415896364,
      "eccentricity": 0.0002986,
      "inclination_deg": 43.0089,
      "raan_deg": 294.4542,
      "arg_perigee_deg": 265.1225,
      "mean_anomaly_deg": 94.9285,
      "mean_motion_rev_day": 15.2759058
    },
    {
      "epoch": "2026-04-01T22:40:19.127712Z",
      "apogee_km": 484.73813479780256,
      "perigee_km": 481.459836243921,
      "latitude_deg": 3.0792452193133184e-05,
      "longitude_deg": 121.85971726175978,
      "height_km": 482.5756081416559,
      "semi_major_axis_km": 6861.2359855208615,
      "eccentricity": 0.0002389,
      "inclination_deg": 43.0065,
      "raan_deg": 292.2398,
      "arg_perigee_deg": 280.6016,
      "mean_anomaly_deg": 79.4567,
      "mean_motion_rev_day": 15.27563339
    },
    {
      "epoch": "2026-04-02T20:38:31.396704Z",
      "apogee_km": 484.82995934206156,
      "perigee_km": 481.384516935439,
      "latitude_deg": -1.0759711835394483e-06,
      "longitude_deg": 146.23648424474877,
      "height_km": 482.9119639625822,
      "semi_major_axis_km": 6861.24423813875,
      "eccentricity": 0.00025108,
      "inclination_deg": 43.0066,
      "raan_deg": 287.07,
      "arg_perigee_deg": 269.1201,
      "mean_anomaly_deg": 90.9363,
      "mean_motion_rev_day": 15.27560583
    },
    {
      "epoch": "2026-04-03T13:54:14.000544Z",
      "apogee_km": 484.31910234062525,
      "perigee_km": 481.7537096041324,
      "latitude_deg": -1.721219551775592e-05,
      "longitude_deg": -117.46596725546239,
      "height_km": 483.2325253726832,
      "semi_major_axis_km": 6861.1734059723785,
      "eccentricity": 0.00018695,
      "inclination_deg": 43.0043,
      "raan_deg": 283.004,
      "arg_perigee_deg": 250.9482,
      "mean_anomaly_deg": 109.1167,
      "mean_motion_rev_day": 15.27584238
    },
    {
      "epoch": "2026-04-04T11:52:25.326048Z",
      "apogee_km": 483.87180413700753,
      "perigee_km": 482.1437562126712,
      "latitude_deg": -4.861619250269169e-05,
      "longitude_deg": -93.08255898925974,
      "height_km": 483.0735139851821,
      "semi_major_axis_km": 6861.144780174839,
      "eccentricity": 0.00012593,
      "inclination_deg": 43.0032,
      "raan_deg": 277.8369,
      "arg_perigee_deg": 250.4666,
      "mean_anomaly_deg": 109.6049,
      "mean_motion_rev_day": 15.27593798
    },
    {
      "epoch": "2026-04-05T11:24:46.171296Z",
      "apogee_km": 484.32886003196927,
      "perigee_km": 481.7636008457721,
      "latitude_deg": 4.0483694678683486e-05,
      "longitude_deg": -92.67363797512976,
      "height_km": 483.0340290684941,
      "semi_major_axis_km": 6861.18323043887,
      "eccentricity": 0.00018694,
      "inclination_deg": 43.0062,
      "raan_deg": 272.2993,
      "arg_perigee_deg": 260.5729,
      "mean_anomaly_deg": 99.4912,
      "mean_motion_rev_day": 15.27580957
    },
    {
      "epoch": "2026-04-05T19:15:33.112512Z",
      "apogee_km": 484.2607618743559,
      "perigee_km": 481.83958614439143,
      "latitude_deg": 2.6547352278189894e-05,
      "longitude_deg": 147.46191911023323,
      "height_km": 483.06941231981483,
      "semi_major_axis_km": 6861.187174009374,
      "eccentricity": 0.00017644,
      "inclination_deg": 43.0054,
      "raan_deg": 270.4527,
      "arg_perigee_deg": 258.4829,
      "mean_anomaly_deg": 101.5825,
      "mean_motion_rev_day": 15.2757964
    },
    {
      "epoch": "2026-04-07T12:03:37.315872Z",
      "apogee_km": 484.2305732029299,
      "perigee_km": 481.8882979637501,
      "latitude_deg": 1.7692481256458258e-05,
      "longitude_deg": -115.83265305183643,
      "height_km": 482.93132865914964,
      "semi_major_axis_km": 6861.19643558334,
      "eccentricity": 0.00017069,
      "inclination_deg": 43.0057,
      "raan_deg": 260.8513,
      "arg_perigee_deg": 265.3802,
      "mean_anomaly_deg": 94.6855,
      "mean_motion_rev_day": 15.27576547
    },
    {
      "epoch": "2026-04-07T19:54:24.244992Z",
      "apogee_km": 484.3137323084411,
      "perigee_km": 481.7997909141868,
      "latitude_deg": 1.222710492741091e-05,
      "longitude_deg": 124.30396322904419,
      "height_km": 482.86206896984254,
      "semi_major_axis_km": 6861.193761611314,
      "eccentricity": 0.0001832,
      "inclination_deg": 43.0065,
      "raan_deg": 259.0057,
      "arg_perigee_deg": 268.7445,
      "mean_anomaly_deg": 91.3197,
      "mean_motion_rev_day": 15.2757744
    },
    {
      "epoch": "2026-04-08T11:35:57.895008Z",
      "apogee_km": 484.3044418896443,
      "perigee_km": 481.8131416976448,
      "latitude_deg": -2.058510768475674e-06,
      "longitude_deg": -115.4226378849032,
      "height_km": 482.6928308758896,
      "semi_major_axis_km": 6861.195791793644,
      "eccentricity": 0.00018155,
      "inclination_deg": 43.0071,
      "raan_deg": 255.3138,
      "arg_perigee_deg": 276.629,
      "mean_anomaly_deg": 83.4355,
      "mean_motion_rev_day": 15.27576762
    },
    {
      "epoch": "2026-04-09T03:17:31.562304Z",
      "apogee_km": 484.2471522438227,
      "perigee_km": 481.8513632263466,
      "latitude_deg": -1.977092889404544e-06,
      "longitude_deg": 4.849704120131106,
      "height_km": 482.6415338110842,
      "semi_major_axis_km": 6861.186257735084,
      "eccentricity": 0.00017459,
      "inclination_deg": 43.0075,
      "raan_deg": 251.6209,
      "arg_perigee_deg": 278.9108,
      "mean_anomaly_deg": 81.1546,
      "mean_motion_rev_day": 15.27579946
    },
    {
      "epoch": "2026-04-11T18:03:47.777184Z",
      "apogee_km": 484.2957996520008,
      "perigee_km": 481.8353724046501,
      "latitude_deg": -3.940802002040884e-05,
      "longitude_deg": 125.9336757611361,
      "height_km": 482.91375513554016,
      "semi_major_axis_km": 6861.202586028325,
      "eccentricity": 0.0001793,
      "inclination_deg": 43.0058,
      "raan_deg": 236.8504,
      "arg_perigee_deg": 266.7141,
      "mean_anomaly_deg": 93.3505,
      "mean_motion_rev_day": 15.27574493
    },
    {
      "epoch": "2026-04-13T01:26:55.274208Z",
      "apogee_km": 484.6120782729695,
      "perigee_km": 481.54209664167774,
      "latitude_deg": -7.373903854782192e-06,
      "longitude_deg": 6.478818229516954,
      "height_km": 482.9743591716543,
      "semi_major_axis_km": 6861.214087457323,
      "eccentricity": 0.00022372,
      "inclination_deg": 43.0051,
      "raan_deg": 229.4657,
      "arg_perigee_deg": 265.5396,
      "mean_anomaly_deg": 94.52,
      "mean_motion_rev_day": 15.27570652
    }
  ]
}